[{"OBJECT_NAME":"HYSIS","OBJECT_ID":"2018-096A","EPOCH":"2026-03-09T22:32:30.412896","MEAN_MOTION":14.78659343,"ECCENTRICITY":0.00017686,"INCLINATION":97.9936,"RA_OF_ASC_NODE":136.421,"ARG_OF_PERICENTER":97.9105,"MEAN_ANOMALY":262.2306,"EPHEMERIS_TYPE":0,"CLASSIFICATION_TYPE":"U","NORAD_CAT_ID":43719,"ELEMENT_SET_NO":999,"REV_AT_EPOCH":39275,"BSTAR":0.00023971552,"MEAN_MOTION_DOT":1.705e-5,"MEAN_MOTION_DDOT":0},{"OBJECT_NAME":"CZ-2F DEB","OBJECT_ID":"2026-024D","EPOCH":"2026-03-09T22:29:00.721824","MEAN_MOTION":15.26264439,"ECCENTRICITY":0.02293172,"INCLINATION":50.3196,"RA_OF_ASC_NODE":17.4686,"ARG_OF_PERICENTER":280.8979,"MEAN_ANOMALY":76.6257,"EPHEMERIS_TYPE":0,"CLASSIFICATION_TYPE":"U","NORAD_CAT_ID":67692,"ELEMENT_SET_NO":999,"REV_AT_EPOCH":466,"BSTAR":0.0047386771,"MEAN_MOTION_DOT":0.00280979,"MEAN_MOTION_DDOT":0}]
